SENTINEL-2B             
1 42063U 17013A   20131.11658247 -.00000013  00000-0  11714-4 0  9991
2 42063  98.5707 205.8844 0001137  77.2672 282.8638 14.30814006165890
